CCSDS_OMM_VERS = 2.0
CREATION_DATE  = 
ORIGINATOR     = 

OBJECT_NAME    = STARLINK-36449
OBJECT_ID      = 2026-002D
CENTER_NAME    = EARTH
REF_FRAME      = TEME
TIME_SYSTEM    = UTC
MEAN_ELEMENT_THEORY = SGP/SGP4

EPOCH          = 2026-01-24T06:00:02.000160
MEAN_MOTION    = 15.72476725
ECCENTRICITY   = .00014519
INCLINATION    = 42.9994
RA_OF_ASC_NODE = 219.4329
ARG_OF_PERICENTER = 278.4632
MEAN_ANOMALY   = 158.1648

EPHEMERIS_TYPE = 0
CLASSIFICATION_TYPE = U
NORAD_CAT_ID   = 67308
ELEMENT_SET_NO = 999
REV_AT_EPOCH   = 433
BSTAR          = -.16914615E-1
MEAN_MOTION_DOT = -.2046695E-1
MEAN_MOTION_DDOT = 0

CCSDS_OMM_VERS = 2.0
CREATION_DATE  = 
ORIGINATOR     = 

OBJECT_NAME    = STARLINK-36482
OBJECT_ID      = 2026-002E
CENTER_NAME    = EARTH
REF_FRAME      = TEME
TIME_SYSTEM    = UTC
MEAN_ELEMENT_THEORY = SGP/SGP4

EPOCH          = 2026-01-23T17:26:58.204320
MEAN_MOTION    = 15.75031822
ECCENTRICITY   = .0001759
INCLINATION    = 42.9984
RA_OF_ASC_NODE = 222.5758
ARG_OF_PERICENTER = 293.1820
MEAN_ANOMALY   = 66.8864

EPHEMERIS_TYPE = 0
CLASSIFICATION_TYPE = U
NORAD_CAT_ID   = 67309
ELEMENT_SET_NO = 999
REV_AT_EPOCH   = 416
BSTAR          = .8872E-4
MEAN_MOTION_DOT = .13168E-3
MEAN_MOTION_DDOT = 0

CCSDS_OMM_VERS = 2.0
CREATION_DATE  = 
ORIGINATOR     = 

OBJECT_NAME    = STARLINK-36491
OBJECT_ID      = 2026-002F
CENTER_NAME    = EARTH
REF_FRAME      = TEME
TIME_SYSTEM    = UTC
MEAN_ELEMENT_THEORY = SGP/SGP4

EPOCH          = 2026-01-23T22:04:22.243296
MEAN_MOTION    = 15.75076753
ECCENTRICITY   = .0002338
INCLINATION    = 43.0000
RA_OF_ASC_NODE = 221.4420
ARG_OF_PERICENTER = 281.6938
MEAN_ANOMALY   = 78.3669

EPHEMERIS_TYPE = 0
CLASSIFICATION_TYPE = U
NORAD_CAT_ID   = 67310
ELEMENT_SET_NO = 999
REV_AT_EPOCH   = 419
BSTAR          = .40088E-2
MEAN_MOTION_DOT = .667697E-2
MEAN_MOTION_DDOT = 0

CCSDS_OMM_VERS = 2.0
CREATION_DATE  = 
ORIGINATOR     = 

OBJECT_NAME    = STARLINK-36495
OBJECT_ID      = 2026-002G
CENTER_NAME    = EARTH
REF_FRAME      = TEME
TIME_SYSTEM    = UTC
MEAN_ELEMENT_THEORY = SGP/SGP4

EPOCH          = 2026-01-24T06:00:02.000160
MEAN_MOTION    = 15.72479279
ECCENTRICITY   = .00016348
INCLINATION    = 42.9994
RA_OF_ASC_NODE = 219.4284
ARG_OF_PERICENTER = 274.8126
MEAN_ANOMALY   = 163.7339

EPHEMERIS_TYPE = 0
CLASSIFICATION_TYPE = U
NORAD_CAT_ID   = 67311
ELEMENT_SET_NO = 999
REV_AT_EPOCH   = 443
BSTAR          = -.16968791E-1
MEAN_MOTION_DOT = -.2052811E-1
MEAN_MOTION_DDOT = 0

CCSDS_OMM_VERS = 2.0
CREATION_DATE  = 
ORIGINATOR     = 

OBJECT_NAME    = STARLINK-36485
OBJECT_ID      = 2026-002H
CENTER_NAME    = EARTH
REF_FRAME      = TEME
TIME_SYSTEM    = UTC
MEAN_ELEMENT_THEORY = SGP/SGP4

EPOCH          = 2026-01-23T20:31:07.340448
MEAN_MOTION    = 15.74534924
ECCENTRICITY   = .0002238
INCLINATION    = 42.9990
RA_OF_ASC_NODE = 221.8148
ARG_OF_PERICENTER = 295.4920
MEAN_ANOMALY   = 64.5717

EPHEMERIS_TYPE = 0
CLASSIFICATION_TYPE = U
NORAD_CAT_ID   = 67312
ELEMENT_SET_NO = 999
REV_AT_EPOCH   = 418
BSTAR          = -.39428E-2
MEAN_MOTION_DOT = -.555616E-2
MEAN_MOTION_DDOT = 0

CCSDS_OMM_VERS = 2.0
CREATION_DATE  = 
ORIGINATOR     = 

OBJECT_NAME    = STARLINK-36445
OBJECT_ID      = 2026-002J
CENTER_NAME    = EARTH
REF_FRAME      = TEME
TIME_SYSTEM    = UTC
MEAN_ELEMENT_THEORY = SGP/SGP4

EPOCH          = 2026-01-23T22:01:59.210688
MEAN_MOTION    = 15.74512661
ECCENTRICITY   = .0002323
INCLINATION    = 42.9991
RA_OF_ASC_NODE = 221.4278
ARG_OF_PERICENTER = 276.7165
MEAN_ANOMALY   = 83.3440

EPHEMERIS_TYPE = 0
CLASSIFICATION_TYPE = U
NORAD_CAT_ID   = 67313
ELEMENT_SET_NO = 999
REV_AT_EPOCH   = 435
BSTAR          = -.2359E-2
MEAN_MOTION_DOT = -.340753E-2
MEAN_MOTION_DDOT = 0

CCSDS_OMM_VERS = 2.0
CREATION_DATE  = 
ORIGINATOR     = 

OBJECT_NAME    = STARLINK-36476
OBJECT_ID      = 2026-002K
CENTER_NAME    = EARTH
REF_FRAME      = TEME
TIME_SYSTEM    = UTC
MEAN_ELEMENT_THEORY = SGP/SGP4

EPOCH          = 2026-01-24T06:00:02.000160
MEAN_MOTION    = 15.72481231
ECCENTRICITY   = .00013916
INCLINATION    = 42.9994
RA_OF_ASC_NODE = 219.4142
ARG_OF_PERICENTER = 271.4595
MEAN_ANOMALY   = 172.8382

EPHEMERIS_TYPE = 0
CLASSIFICATION_TYPE = U
NORAD_CAT_ID   = 67314
ELEMENT_SET_NO = 999
REV_AT_EPOCH   = 427
BSTAR          = -.16995178E-1
MEAN_MOTION_DOT = -.2055548E-1
MEAN_MOTION_DDOT = 0

CCSDS_OMM_VERS = 2.0
CREATION_DATE  = 
ORIGINATOR     = 

OBJECT_NAME    = STARLINK-36463
OBJECT_ID      = 2026-002L
CENTER_NAME    = EARTH
REF_FRAME      = TEME
TIME_SYSTEM    = UTC
MEAN_ELEMENT_THEORY = SGP/SGP4

EPOCH          = 2026-01-24T05:36:47.493792
MEAN_MOTION    = 15.75761225
ECCENTRICITY   = .00147204
INCLINATION    = 42.9997
RA_OF_ASC_NODE = 219.4930
ARG_OF_PERICENTER = 359.3867
MEAN_ANOMALY   = 0.6983

EPHEMERIS_TYPE = 0
CLASSIFICATION_TYPE = U
NORAD_CAT_ID   = 67315
ELEMENT_SET_NO = 999
REV_AT_EPOCH   = 430
BSTAR          = .22691485E-2
MEAN_MOTION_DOT = .377859E-2
MEAN_MOTION_DDOT = 0

CCSDS_OMM_VERS = 2.0
CREATION_DATE  = 
ORIGINATOR     = 

OBJECT_NAME    = STARLINK-36461
OBJECT_ID      = 2026-002M
CENTER_NAME    = EARTH
REF_FRAME      = TEME
TIME_SYSTEM    = UTC
MEAN_ELEMENT_THEORY = SGP/SGP4

EPOCH          = 2026-01-24T06:00:02.000160
MEAN_MOTION    = 15.72477659
ECCENTRICITY   = .00015917
INCLINATION    = 42.9994
RA_OF_ASC_NODE = 219.3989
ARG_OF_PERICENTER = 273.0469
MEAN_ANOMALY   = 177.0022

EPHEMERIS_TYPE = 0
CLASSIFICATION_TYPE = U
NORAD_CAT_ID   = 67316
ELEMENT_SET_NO = 999
REV_AT_EPOCH   = 443
BSTAR          = -.16951559E-1
MEAN_MOTION_DOT = -.2050816E-1
MEAN_MOTION_DDOT = 0

CCSDS_OMM_VERS = 2.0
CREATION_DATE  = 
ORIGINATOR     = 

OBJECT_NAME    = STARLINK-36450
OBJECT_ID      = 2026-002N
CENTER_NAME    = EARTH
REF_FRAME      = TEME
TIME_SYSTEM    = UTC
MEAN_ELEMENT_THEORY = SGP/SGP4

EPOCH          = 2026-01-24T06:00:02.000160
MEAN_MOTION    = 15.72485575
ECCENTRICITY   = .00016123
INCLINATION    = 42.9994
RA_OF_ASC_NODE = 219.3943
ARG_OF_PERICENTER = 271.6684
MEAN_ANOMALY   = 180.2902

EPHEMERIS_TYPE = 0
CLASSIFICATION_TYPE = U
NORAD_CAT_ID   = 67317
ELEMENT_SET_NO = 999
REV_AT_EPOCH   = 443
BSTAR          = -.17008287E-1
MEAN_MOTION_DOT = -.2057473E-1
MEAN_MOTION_DDOT = 0

CCSDS_OMM_VERS = 2.0
CREATION_DATE  = 
ORIGINATOR     = 

OBJECT_NAME    = STARLINK-36498
OBJECT_ID      = 2026-002P
CENTER_NAME    = EARTH
REF_FRAME      = TEME
TIME_SYSTEM    = UTC
MEAN_ELEMENT_THEORY = SGP/SGP4

EPOCH          = 2026-01-24T06:00:02.000160
MEAN_MOTION    = 15.72484371
ECCENTRICITY   = .00015992
INCLINATION    = 42.9994
RA_OF_ASC_NODE = 219.3839
ARG_OF_PERICENTER = 279.1982
MEAN_ANOMALY   = 176.5952

EPHEMERIS_TYPE = 0
CLASSIFICATION_TYPE = U
NORAD_CAT_ID   = 67318
ELEMENT_SET_NO = 999
REV_AT_EPOCH   = 433
BSTAR          = -.16998182E-1
MEAN_MOTION_DOT = -.2056295E-1
MEAN_MOTION_DDOT = 0

CCSDS_OMM_VERS = 2.0
CREATION_DATE  = 
ORIGINATOR     = 

OBJECT_NAME    = STARLINK-36470
OBJECT_ID      = 2026-002Q
CENTER_NAME    = EARTH
REF_FRAME      = TEME
TIME_SYSTEM    = UTC
MEAN_ELEMENT_THEORY = SGP/SGP4

EPOCH          = 2026-01-24T05:35:49.400160
MEAN_MOTION    = 15.74748911
ECCENTRICITY   = .00133938
INCLINATION    = 43.0004
RA_OF_ASC_NODE = 219.4887
ARG_OF_PERICENTER = 24.7990
MEAN_ANOMALY   = 335.3521

EPHEMERIS_TYPE = 0
CLASSIFICATION_TYPE = U
NORAD_CAT_ID   = 67319
ELEMENT_SET_NO = 999
REV_AT_EPOCH   = 430
BSTAR          = .28238482E-2
MEAN_MOTION_DOT = .453467E-2
MEAN_MOTION_DDOT = 0

