STARLINK-36449          
1 67308U 26002D   26024.25002315 -.02046695  00000+0 -16915-1 0  9992
2 67308  42.9994 219.4329 0001451 278.4632 158.1648 15.72476725  4335
STARLINK-36482          
1 67309U 26002E   26023.72706255  .00013168  00000+0  88720-4 0  9999
2 67309  42.9984 222.5758 0001759 293.1820  66.8864 15.75031822  4164
STARLINK-36491          
1 67310U 26002F   26023.91970189  .00667697  00000+0  40088-2 0  9996
2 67310  43.0000 221.4420 0002338 281.6938  78.3669 15.75076753  4193
STARLINK-36495          
1 67311U 26002G   26024.25002315 -.02052811  00000+0 -16969-1 0  9992
2 67311  42.9994 219.4284 0001634 274.8126 163.7339 15.72479279  4437
STARLINK-36485          
1 67312U 26002H   26023.85494607 -.00555616  00000+0 -39428-2 0  9992
2 67312  42.9990 221.8148 0002238 295.4920  64.5717 15.74534924  4183
STARLINK-36445          
1 67313U 26002J   26023.91804642 -.00340753  00000+0 -23590-2 0  9991
2 67313  42.9991 221.4278 0002323 276.7165  83.3440 15.74512661  4358
STARLINK-36476          
1 67314U 26002K   26024.25002315 -.02055548  00000+0 -16995-1 0  9994
2 67314  42.9994 219.4142 0001391 271.4595 172.8382 15.72481231  4278
STARLINK-36463          
1 67315U 26002L   26024.23388303  .00377859  00000+0  22691-2 0  9996
2 67315  42.9997 219.4930 0014720 359.3867   0.6983 15.75761225  4301
STARLINK-36461          
1 67316U 26002M   26024.25002315 -.02050816  00000+0 -16952-1 0  9992
2 67316  42.9994 219.3989 0001591 273.0469 177.0022 15.72477659  4433
STARLINK-36450          
1 67317U 26002N   26024.25002315 -.02057473  00000+0 -17008-1 0  9992
2 67317  42.9994 219.3943 0001612 271.6684 180.2902 15.72485575  4430
STARLINK-36498          
1 67318U 26002P   26024.25002315 -.02056295  00000+0 -16998-1 0  9991
2 67318  42.9994 219.3839 0001599 279.1982 176.5952 15.72484371  4338
STARLINK-36470          
1 67319U 26002Q   26024.23321065  .00453467  00000+0  28238-2 0  9995
2 67319  43.0004 219.4887 0013393  24.7990 335.3521 15.74748911  4304
